{"type": "FeatureCollection", "features": [ {"type": "Feature", "properties": {"norad_id": 66513, "name": "STARLINK-35692", "group": "last-30-days", "lat": 23.249427243527848, "lon": 169.76482035959626, "alt_km": 412.0744671469356, "timestamp": "2025-12-09T18:55:16.022114+00:00", "meta": {"OBJECT_NAME": "STARLINK-35692", "OBJECT_ID": "2025-263AE", "EPOCH": "2025-12-09T14:00:01.999872", "MEAN_MOTION": 15.50586333, "ECCENTRICITY": 0.00014313, "INCLINATION": 43.0004, "RA_OF_ASC_NODE": 143.5103, "ARG_OF_PERICENTER": 261.2045, "MEAN_ANOMALY": 68.4069, "EPHEMERIS_TYPE": 0, "CLASSIFICATION_TYPE": "U", "NORAD_CAT_ID": 66513, "ELEMENT_SET_NO": 999, "REV_AT_EPOCH": 512, "BSTAR": -0.00118705, "MEAN_MOTION_DOT": -0.00069384, "MEAN_MOTION_DDOT": 0}, "tle": {"line1": "1 66513U 25263AE  25343.58335648 -.00069384  00000+0 -11871-2 0  9999", "line2": "2 66513  43.0004 143.5103 0001431 261.2045  68.4069 15.50586333  5120"}}, "geometry": {"type": "Point", "coordinates": [169.76482035959626, 23.249427243527848]}}, {"type": "Feature", "properties": {"norad_id": 66514, "name": "SENTINEL-6B", "group": "last-30-days", "lat": 14.48390005494429, "lon": -18.026096879980376, "alt_km": 1329.0102881491785, "timestamp": "2025-12-09T18:55:16.022124+00:00", "meta": {"OBJECT_NAME": "SENTINEL-6B", "OBJECT_ID": "2025-264A", "EPOCH": "2025-12-08T23:22:28.384896", "MEAN_MOTION": 12.84031992, "ECCENTRICITY": 0.00210406, "INCLINATION": 66.0385, "RA_OF_ASC_NODE": 170.2707, "ARG_OF_PERICENTER": 268.23, "MEAN_ANOMALY": 91.6307, "EPHEMERIS_TYPE": 0, "CLASSIFICATION_TYPE": "U", "NORAD_CAT_ID": 66514, "ELEMENT_SET_NO": 999, "REV_AT_EPOCH": 280, "BSTAR": 0.000106025, "MEAN_MOTION_DOT": -3.6e-07, "MEAN_MOTION_DDOT": 0}, "tle": {"line1": "1 66514U 25264A   25342.97393964 -.00000036  00000+0  10602-3 0  9998", "line2": "2 66514  66.0385 170.2707 0021040 268.2300  91.6307 12.84031992  2809"}}, "geometry": {"type": "Point", "coordinates": [-18.026096879980376, 14.48390005494429]}}, {"type": "Feature", "properties": {"norad_id": 66516, "name": "STARLINK-35924", "group": "last-30-days", "lat": -14.996946413867219, "lon": -92.0083887689631, "alt_km": 414.7374270318596, "timestamp": "2025-12-09T18:55:16.022136+00:00", "meta": {"OBJECT_NAME": "STARLINK-35924", "OBJECT_ID": "2025-265A", "EPOCH": "2025-12-09T14:00:01.999872", "MEAN_MOTION": 15.51906227, "ECCENTRICITY": 0.00015073, "INCLINATION": 43.0002, "RA_OF_ASC_NODE": 72.4855, "ARG_OF_PERICENTER": 286.3508, "MEAN_ANOMALY": 209.3659, "EPHEMERIS_TYPE": 0, "CLASSIFICATION_TYPE": "U", "NORAD_CAT_ID": 66516, "ELEMENT_SET_NO": 999, "REV_AT_EPOCH": 446, "BSTAR": -0.030912371, "MEAN_MOTION_DOT": -0.01699673, "MEAN_MOTION_DDOT": 0}, "tle": {"line1": "1 66516U 25265A   25343.58335648 -.01699673  00000+0 -30912-1 0  9991", "line2": "2 66516  43.0002  72.4855 0001507 286.3508 209.3659 15.51906227  4467"}}, "geometry": {"type": "Point", "coordinates": [-92.0083887689631, -14.996946413867219]}}, {"type": "Feature", "properties": {"norad_id": 66517, "name": "STARLINK-35937", "group": "last-30-days", "lat": -16.242425691489455, "lon": -90.5018416203302, "alt_km": 414.8067025337323, "timestamp": "2025-12-09T18:55:16.022147+00:00", "meta": {"OBJECT_NAME": "STARLINK-35937", "OBJECT_ID": "2025-265B", "EPOCH": "2025-12-09T14:00:01.999872", "MEAN_MOTION": 15.51916633, "ECCENTRICITY": 0.00015912, "INCLINATION": 42.9999, "RA_OF_ASC_NODE": 72.4811, "ARG_OF_PERICENTER": 286.6198, "MEAN_ANOMALY": 211.0088, "EPHEMERIS_TYPE": 0, "CLASSIFICATION_TYPE": "U", "NORAD_CAT_ID": 66517, "ELEMENT_SET_NO": 999, "REV_AT_EPOCH": 448, "BSTAR": -0.031154692, "MEAN_MOTION_DOT": -0.017122, "MEAN_MOTION_DDOT": 0}, "tle": {"line1": "1 66517U 25265B   25343.58335648 -.01712200  00000+0 -31155-1 0  9994", "line2": "2 66517  42.9999  72.4811 0001591 286.6198 211.0088 15.51916633  4484"}}, "geometry": {"type": "Point", "coordinates": [-90.5018416203302, -16.242425691489455]}}, {"type": "Feature", "properties": {"norad_id": 66518, "name": "STARLINK-35962", "group": "last-30-days", "lat": -17.477359173958337, "lon": -88.97662054491076, "alt_km": 414.8873391927773, "timestamp": "2025-12-09T18:55:16.022157+00:00", "meta": {"OBJECT_NAME": "STARLINK-35962", "OBJECT_ID": "2025-265C", "EPOCH": "2025-12-09T14:00:01.999872", "MEAN_MOTION": 15.51914773, "ECCENTRICITY": 0.00015872, "INCLINATION": 42.9999, "RA_OF_ASC_NODE": 72.476, "ARG_OF_PERICENTER": 286.7379, "MEAN_ANOMALY": 212.8082, "EPHEMERIS_TYPE": 0, "CLASSIFICATION_TYPE": "U", "NORAD_CAT_ID": 66518, "ELEMENT_SET_NO": 999, "REV_AT_EPOCH": 448, "BSTAR": -0.03109851, "MEAN_MOTION_DOT": -0.01709336, "MEAN_MOTION_DDOT": 0}, "tle": {"line1": "1 66518U 25265C   25343.58335648 -.01709336  00000+0 -31099-1 0  9998", "line2": "2 66518  42.9999  72.4760 0001587 286.7379 212.8082 15.51914773  4481"}}, "geometry": {"type": "Point", "coordinates": [-88.97662054491076, -17.477359173958337]}}, {"type": "Feature", "properties": {"norad_id": 66519, "name": "STARLINK-35931", "group": "last-30-days", "lat": -18.707035008061865, "lon": -87.42256374108233, "alt_km": 414.90940652399513, "timestamp": "2025-12-09T18:55:16.022167+00:00", "meta": {"OBJECT_NAME": "STARLINK-35931", "OBJECT_ID": "2025-265D", "EPOCH": "2025-12-09T14:00:01.999872", "MEAN_MOTION": 15.51946744, "ECCENTRICITY": 0.00016904, "INCLINATION": 43.0002, "RA_OF_ASC_NODE": 72.4707, "ARG_OF_PERICENTER": 285.8, "MEAN_ANOMALY": 215.6608, "EPHEMERIS_TYPE": 0, "CLASSIFICATION_TYPE": "U", "NORAD_CAT_ID": 66519, "ELEMENT_SET_NO": 999, "REV_AT_EPOCH": 448, "BSTAR": -0.032174265, "MEAN_MOTION_DOT": -0.01763854, "MEAN_MOTION_DDOT": 0}, "tle": {"line1": "1 66519U 25265D   25343.58335648 -.01763854  00000+0 -32174-1 0  9999", "line2": "2 66519  43.0002  72.4707 0001690 285.8000 215.6608 15.51946744  4484"}}, "geometry": {"type": "Point", "coordinates": [-87.42256374108233, -18.707035008061865]}}, {"type": "Feature", "properties": {"norad_id": 66520, "name": "STARLINK-35952", "group": "last-30-days", "lat": -19.911363052509675, "lon": -85.86099568013978, "alt_km": 415.03895255096177, "timestamp": "2025-12-09T18:55:16.022177+00:00", "meta": {"OBJECT_NAME": "STARLINK-35952", "OBJECT_ID": "2025-265E", "EPOCH": "2025-12-09T14:00:01.999872", "MEAN_MOTION": 15.51913451, "ECCENTRICITY": 0.00015281, "INCLINATION": 43.0001, "RA_OF_ASC_NODE": 72.466, "ARG_OF_PERICENTER": 286.8536, "MEAN_ANOMALY": 216.5273, "EPHEMERIS_TYPE": 0, "CLASSIFICATION_TYPE": "U", "NORAD_CAT_ID": 66520, "ELEMENT_SET_NO": 999, "REV_AT_EPOCH": 448, "BSTAR": -0.031065585, "MEAN_MOTION_DOT": -0.01707614, "MEAN_MOTION_DDOT": 0}, "tle": {"line1": "1 66520U 25265E   25343.58335648 -.01707614  00000+0 -31066-1 0  9992", "line2": "2 66520  43.0001  72.4660 0001528 286.8536 216.5273 15.51913451  4485"}}, "geometry": {"type": "Point", "coordinates": [-85.86099568013978, -19.911363052509675]}}, {"type": "Feature", "properties": {"norad_id": 66521, "name": "STARLINK-35915", "group": "last-30-days", "lat": -21.108984626535335, "lon": -84.266076711646, "alt_km": 415.12607106491305, "timestamp": "2025-12-09T18:55:16.022187+00:00", "meta": {"OBJECT_NAME": "STARLINK-35915", "OBJECT_ID": "2025-265F", "EPOCH": "2025-12-09T14:00:01.999872", "MEAN_MOTION": 15.51913104, "ECCENTRICITY": 0.00014263, "INCLINATION": 43.0001, "RA_OF_ASC_NODE": 72.4611, "ARG_OF_PERICENTER": 287.0234, "MEAN_ANOMALY": 218.2763, "EPHEMERIS_TYPE": 0, "CLASSIFICATION_TYPE": "U", "NORAD_CAT_ID": 66521, "ELEMENT_SET_NO": 999, "REV_AT_EPOCH": 448, "BSTAR": -0.031095426, "MEAN_MOTION_DOT": -0.01709009, "MEAN_MOTION_DDOT": 0}, "tle": {"line1": "1 66521U 25265F   25343.58335648 -.01709009  00000+0 -31095-1 0  9995", "line2": "2 66521  43.0001  72.4611 0001426 287.0234 218.2763 15.51913104  4485"}}, "geometry": {"type": "Point", "coordinates": [-84.266076711646, -21.108984626535335]}}, {"type": "Feature", "properties": {"norad_id": 66522, "name": "STARLINK-35946", "group": "last-30-days", "lat": -22.28764010902955, "lon": -82.65028694759759, "alt_km": 415.1858443570527, "timestamp": "2025-12-09T18:55:16.022197+00:00", "meta": {"OBJECT_NAME": "STARLINK-35946", "OBJECT_ID": "2025-265G", "EPOCH": "2025-12-09T14:00:01.999872", "MEAN_MOTION": 15.51909097, "ECCENTRICITY": 0.00015045, "INCLINATION": 42.9999, "RA_OF_ASC_NODE": 72.4562, "ARG_OF_PERICENTER": 287.5849, "MEAN_ANOMALY": 219.6307, "EPHEMERIS_TYPE": 0, "CLASSIFICATION_TYPE": "U", "NORAD_CAT_ID": 66522, "ELEMENT_SET_NO": 999, "REV_AT_EPOCH": 448, "BSTAR": -0.030929628, "MEAN_MOTION_DOT": -0.01700679, "MEAN_MOTION_DDOT": 0}, "tle": {"line1": "1 66522U 25265G   25343.58335648 -.01700679  00000+0 -30930-1 0  9997", "line2": "2 66522  42.9999  72.4562 0001504 287.5849 219.6307 15.51909097  4484"}}, "geometry": {"type": "Point", "coordinates": [-82.65028694759759, -22.28764010902955]}}, {"type": "Feature", "properties": {"norad_id": 66523, "name": "STARLINK-35969", "group": "last-30-days", "lat": -23.452549360123577, "lon": -81.00386340609965, "alt_km": 415.19088913257565, "timestamp": "2025-12-09T18:55:16.022207+00:00", "meta": {"OBJECT_NAME": "STARLINK-35969", "OBJECT_ID": "2025-265H", "EPOCH": "2025-12-09T14:00:01.999872", "MEAN_MOTION": 15.51909218, "ECCENTRICITY": 0.0001496, "INCLINATION": 43.0002, "RA_OF_ASC_NODE": 72.4513, "ARG_OF_PERICENTER": 284.866, "MEAN_ANOMALY": 224.2669, "EPHEMERIS_TYPE": 0, "CLASSIFICATION_TYPE": "U", "NORAD_CAT_ID": 66523, "ELEMENT_SET_NO": 999, "REV_AT_EPOCH": 448, "BSTAR": -0.030943499, "MEAN_MOTION_DOT": -0.01701363, "MEAN_MOTION_DDOT": 0}, "tle": {"line1": "1 66523U 25265H   25343.58335648 -.01701363  00000+0 -30943-1 0  9993", "line2": "2 66523  43.0002  72.4513 0001496 284.8660 224.2669 15.51909218  4487"}}, "geometry": {"type": "Point", "coordinates": [-81.00386340609965, -23.452549360123577]}}]}